GSAT0101 (PRN E11)      
1 37846U 11060A   22238.64204432 -.00000073  00000+0  00000+0 0  9997
2 37846  57.0217  19.4310 0002291  70.9369 289.0868  1.70475112 67415
GSAT0102 (PRN E12)      
1 37847U 11060B   22238.55782259 -.00000073  00000+0  00000+0 0  9996
2 37847  57.0228  19.4330 0001396   5.6937 349.3896  1.70475503 67539
GSAT0103 (PRN E19)      
1 38857U 12055A   22237.50828110 -.00000013  00000+0  00000+0 0  9998
2 38857  55.1546 139.8008 0003074 267.7051  92.3022  1.70473854 61420
GSAT0104 (PRN E20)      
1 38858U 12055B   22238.06487177 -.00000009  00000+0  00000+0 0  9990
2 38858  55.1549 139.7871 0000765 265.7122  94.3258  1.70474193 61297
GSAT0201 (PRN E18)      
1 40128U 14050A   22238.81827073 -.00000078  00000+0  00000+0 0  9992
2 40128  50.2352 329.4800 1622830 126.6112 249.4510  1.85519205 52526
GSAT0202 (PRN E14)      
1 40129U 14050B   22237.46203816 -.00000083  00000+0  00000+0 0  9992
2 40129  50.2601 328.5964 1620028 127.3728 248.5242  1.85519817 54661
GSAT0203 (PRN E26)      
1 40544U 15017A   22237.83570033 -.00000075  00000+0  00000+0 0  9997
2 40544  56.8172  19.4766 0002710 214.0008 145.9815  1.70476288 46147
GSAT0204 (PRN E22)      
1 40545U 15017B   22238.67513903 -.00000073  00000+0  00000+0 0  9992
2 40545  56.8225  19.4664 0003007 192.9408 167.0506  1.70475903  8549
GSAT0205 (PRN E24)      
1 40889U 15045A   22239.02899881  .00000056  00000+0  00000+0 0  9996
2 40889  55.5804 260.0129 0003661 347.7305  12.3184  1.70473531 43314
GSAT0206 (PRN E30)      
1 40890U 15045B   22238.07660916  .00000057  00000+0  00000+0 0  9998
2 40890  55.5794 260.0348 0002771 315.8567  44.1837  1.70473425 43325
GSAT0209 (PRN E09)      
1 41174U 15079A   22237.66418843 -.00000012  00000+0  00000+0 0  9997
2 41174  55.1712 139.5006 0003596 323.2584  36.7614  1.70474038 41055
GSAT0208 (PRN E08)      
1 41175U 15079B   22239.05687155 -.00000001  00000+0  00000+0 0  9995
2 41175  55.1698 139.4608 0002413 335.9350  24.1091  1.70473851 41494
GSAT0211 (PRN E02)      
1 41549U 16030A   22239.17592024  .00000057  00000+0  00000+0 0  9991
2 41549  55.7252 259.9450 0004543 302.6518  57.3614  1.70475042 38979
GSAT0210 (PRN E01)      
1 41550U 16030B   22238.88193738  .00000057  00000+0  00000+0 0  9999
2 41550  55.7260 259.9544 0007300 272.6013  87.3737  1.70475141 38962
GSAT0207 (PRN E07)      
1 41859U 16069A   22238.54433420 -.00000006  00000+0  00000+0 0  9996
2 41859  54.8321 139.6404 0003553 305.7155  54.3021  1.70472696 35916
GSAT0212 (PRN E03)      
1 41860U 16069B   22238.39773411 -.00000007  00000+0  00000+0 0  9999
2 41860  54.8296 139.6419 0002693 338.0847  21.9533  1.70472752 35940
GSAT0213 (PRN E04)      
1 41861U 16069C   22237.00329492 -.00000017  00000+0  00000+0 0  9994
2 41861  54.8318 139.6858 0003347 278.1335  81.8674  1.70472946 35784
GSAT0214 (PRN E05)      
1 41862U 16069D   22238.32362052 -.00000007  00000+0  00000+0 0  9999
2 41862  54.8300 139.6437 0002297 284.6450  75.3785  1.70472762 35936
GSAT0215 (PRN E21)      
1 43055U 17079A   22238.81371812  .00000057  00000+0  00000+0 0  9999
2 43055  55.7012 259.7864 0004092 268.5139  91.4978  1.70474291 29283
GSAT0216 (PRN E25)      
1 43056U 17079B   22237.34615097  .00000057  00000+0  00000+0 0  9993
2 43056  55.7070 259.8264 0005747 273.6962  86.3030  1.70474449 29278
GSAT0217 (PRN E27)      
1 43057U 17079C   22237.56640534  .00000057  00000+0  00000+0 0  9992
2 43057  55.7004 259.8203 0005118 282.1192  77.8877  1.70474417 29269
GSAT0218 (PRN E31)      
1 43058U 17079D   22238.95960073  .00000057  00000+0  00000+0 0  9990
2 43058  55.6998 259.7793 0006249 271.1785  88.8077  1.70474364 29317
GSAT0221 (PRN E15)      
1 43564U 18060A   22238.85835172 -.00000072  00000+0  00000+0 0  9991
2 43564  57.1998  19.2824 0002134 246.4441 113.5322  1.70476130 25467
GSAT0222 (PRN E33)      
1 43565U 18060B   22238.49163934 -.00000073  00000+0  00000+0 0  9993
2 43565  57.2022  19.2927 0001497 259.1837 100.7982  1.70476112 25507
GSAT0219 (PRN E36)      
1 43566U 18060C   22238.71218242 -.00000073  00000+0  00000+0 0  9992
2 43566  57.2014  19.2887 0001167 252.6916 107.2943  1.70476137 25487
GSAT0220 (PRN E13)      
1 43567U 18060D   22239.51892208 -.00000071  00000+0  00000+0 0  9990
2 43567  57.2038  19.2678 0001613 244.2772 115.7048  1.70476041 25478
GSAT0223                
1 49809U 21116A   22239.37668171 -.00000071  00000+0  00000+0 0  9995
2 49809  57.1947  19.1697 0003274 161.6132 201.1187  1.70476254  4497
GSAT0224                
1 49810U 21116B   22239.47647858 -.00000071  00000+0  00000+0 0  9997
2 49810  57.1960  19.1649 0002807 149.6058  26.8513  1.70476228  4514
